457P/Lemmon-PANSTARRS,e,5.2254,175.9749,104.4494,2.645926,0.2290011,0.11877480,280.4139,09/08.0/2023,2000,g 15.5,4.0
# From MPEC 2023-HD1
458P/Jahn,e,13.6283,1.5877,104.8025,3.856542,0.1301389,0.31695457,40.7100,09/08.0/2023,2000,g 17.3,4.0
# From MPEC 2023-Q33
459P/Catalina,e,7.1721,256.9944,205.1883,3.239074,0.1690724,0.57760980,33.5792,09/08.0/2023,2000,g 15.5,4.0
# From MPEC 2023-G14
460P/PANSTARRS,e,18.8949,180.5155,351.9649,3.027079,0.1871408,0.66406656,152.2220,09/08.0/2023,2000,g 21.0,4.0
# From MPEC 2023-J95
461P/WISE,e,18.4123,194.3757,174.8145,3.142741,0.1769054,0.57029119,124.3762,09/08.0/2023,2000,g 18.5,4.0
# From MPEC 2023-JA3
462P/LONEOS-PANSTARRS,e,7.0244,322.8259,4.4147,4.883460,0.0913298,0.57837396,36.7061,09/08.0/2023,2000,g 17.0,4.0
# From MPEC 2023-Q33
463P/NEOWISE,e,29.2798,283.2091,216.3651,2.974689,0.1921063,0.82555728,31.1943,09/08.0/2023,2000,g 18.0,4.0
# From MPEC 2023-Q33
464P/PANSTARRS,e,21.6642,309.5871,267.6832,4.687809,0.0971067,0.28059514,18.6389,09/08.0/2023,2000,g 10.5,4.0
# From MPEC 2023-Q33
465P/Hill,e,25.8708,218.0114,141.2355,6.039378,0.0664073,0.61423874,8.0429,09/08.0/2023,2000,g 12.5,4.0
# From MPEC 2023-R20
466P/PANSTARRS,e,12.2358,119.8661,196.7126,4.042348,0.1212700,0.46696178,15.4387,09/08.0/2023,2000,g 14.0,4.0
# From MPC107687
1I/`Oumuamua,h,09/09.4886/2017,122.6778,24.5997,241.6845,1.199252,0.255240,2000,23.0,2.0
# From MPEC 2023-L37
2I/Borisov,h,12/08.5548/2019,44.0527,308.1480,209.1251,3.356633,2.006548,2000,11.0,4.0
